{
  "norad_id": 53544,
  "name": "STARLINK-4303",
  "history": [
    {
      "epoch": "2026-03-28T21:33:14.423904Z",
      "apogee_km": 540.6978098305726,
      "perigee_km": 538.7400566014721,
      "latitude_deg": 2.3649320676692466e-06,
      "longitude_deg": -171.7286253658462,
      "height_km": 540.5560305550836,
      "semi_major_axis_km": 6917.855933216022,
      "eccentricity": 0.0001415,
      "inclination_deg": 53.2169,
      "raan_deg": 337.8934,
      "arg_perigee_deg": 86.5746,
      "mean_anomaly_deg": 273.5408,
      "mean_motion_rev_day": 15.08848001
    }
  ]
}